OBJECT_NAME,OBJECT_ID,EPOCH,MEAN_MOTION,ECCENTRICITY,INCLINATION,RA_OF_ASC_NODE,ARG_OF_PERICENTER,MEAN_ANOMALY,EPHEMERIS_TYPE,CLASSIFICATION_TYPE,NORAD_CAT_ID,ELEMENT_SET_NO,REV_AT_EPOCH,BSTAR,MEAN_MOTION_DOT,MEAN_MOTION_DDOT
ONEWEB-0198,2021-031G,2026-06-19T14:04:21.158400,13.14502899,.000214,87.8959,289.2333,112.3796,247.7561,0,U,48216,999,24880,-.32850933E-3,-.109E-5,0
ONEWEB-0189,2021-031H,2026-06-19T08:53:35.466432,13.14503082,.00020659,87.8971,289.2625,110.3827,249.7525,0,U,48217,999,24851,-.34546836E-3,-.115E-5,0
ONEWEB-0196,2021-031J,2026-06-19T17:29:40.193952,13.14503287,.0002026,87.8969,289.2000,104.5410,255.5945,0,U,48218,999,24856,-.36125E-3,-.121E-5,0
ONEWEB-0183,2021-031K,2026-06-19T18:42:44.637120,13.14503850,.0002051,87.8967,289.1880,96.5365,263.5999,0,U,48219,999,24866,.61545E-3,.241E-5,0
ONEWEB-0185,2021-031L,2026-06-19T17:30:48.082752,13.14502853,.0002352,87.8975,289.1915,100.1542,259.9853,0,U,48220,999,24858,-.30901E-3,-.102E-5,0
ONEWEB-0187,2021-031M,2026-06-19T17:02:02.967648,13.14500538,.0002097,87.8962,289.2109,103.7648,256.3715,0,U,48221,999,24859,.15031E-2,.57E-5,0
ONEWEB-0192,2021-031N,2026-06-19T09:00:26.032320,13.14501389,.00019209,87.8967,289.2681,104.1359,255.9985,0,U,48222,999,24846,-.13888286E-3,-.39E-6,0
ONEWEB-0219,2021-031P,2026-06-19T13:59:33.418752,13.14502581,.00021771,87.8967,289.2185,102.8285,257.3088,0,U,48223,999,24869,-.55888942E-4,-.8E-7,0
ONEWEB-0202,2021-031Q,2026-06-19T13:32:11.316768,13.14503602,.00019605,87.8970,289.2350,121.3157,238.8165,0,U,48224,999,24867,.61568116E-3,.241E-5,0
ONEWEB-0204,2021-031R,2026-06-19T14:21:15.749280,13.14507558,.00020165,87.8977,289.2232,91.2760,268.8601,0,U,48225,999,24857,-.82590744E-3,-.293E-5,0
ONEWEB-0205,2021-031S,2026-06-19T08:17:01.946688,13.14501141,.00021802,87.8976,289.2663,105.4648,254.6723,0,U,48226,999,24855,-.22707545E-3,-.71E-6,0
ONEWEB-0206,2021-031T,2026-06-19T16:46:16.637952,13.14503635,.0001792,87.8971,289.1975,97.8820,262.2514,0,U,48227,999,24855,.44432E-3,.178E-5,0
ONEWEB-0182,2021-031U,2026-06-19T14:49:49.519200,13.14503181,.0002072,87.8968,289.2211,95.5423,264.5943,0,U,48228,999,24875,.56286505E-3,.221E-5,0
ONEWEB-0186,2021-031V,2026-06-19T18:45:01.600128,13.14503139,.0002042,87.8978,289.1795,102.4397,257.6961,0,U,48229,999,24872,.6805E-3,.265E-5,0
ONEWEB-0181,2021-031W,2026-06-19T14:33:50.226912,13.14504011,.00020378,87.8958,289.2432,106.3826,253.7528,0,U,48230,999,24855,.77180014E-4,.41E-6,0
ONEWEB-0188,2021-031X,2026-06-19T17:18:14.416416,13.14504207,.0001995,87.8961,289.2197,100.9164,259.2190,0,U,48231,999,24847,.96208E-4,.48E-6,0
ONEWEB-0220,2021-031Y,2026-06-19T14:36:06.404544,13.14502994,.00022751,87.8975,289.2154,102.8190,257.3194,0,U,48232,999,24872,.27938484E-3,.116E-5,0
ONEWEB-0165,2021-031Z,2026-06-19T18:56:26.720160,13.14502076,.0002034,87.8971,289.1922,112.2337,247.9009,0,U,48233,999,24870,.36855E-3,.149E-5,0
ONEWEB-0199,2021-031AA,2026-06-19T18:33:36.436032,13.14503521,.0001811,87.8974,289.1811,95.6881,264.4455,0,U,48234,999,24860,.66715E-3,.26E-5,0
ONEWEB-0203,2021-031AB,2026-06-19T14:40:41.633472,13.14503284,.00017958,87.8973,289.2169,103.9070,256.2260,0,U,48235,999,24859,.32642847E-3,.134E-5,0
ONEWEB-0197,2021-031AC,2026-06-19T14:03:56.397024,13.14504228,.00022014,87.8964,289.2077,96.7967,263.3414,0,U,48236,999,24850,-.42884774E-3,-.146E-5,0
ONEWEB-0194,2021-031AD,2026-06-19T13:34:28.149312,13.14502560,.00017022,87.8969,289.2342,99.2964,260.8359,0,U,48237,999,24867,.25735485E-3,.108E-5,0
ONEWEB-0193,2021-031AE,2026-06-19T17:36:30.823776,13.14503146,.0001496,87.8968,289.1910,96.1535,263.9765,0,U,48238,999,24864,-.49543E-3,-.171E-5,0
ONEWEB-0191,2021-031AF,2026-06-19T14:13:17.216832,13.14503183,.00020435,87.8977,289.2183,96.0350,264.1013,0,U,48239,999,24848,-.50123311E-3,-.173E-5,0
ONEWEB-0195,2021-031AG,2026-06-19T13:40:10.056576,13.14502319,.00021313,87.8975,289.2234,111.1000,249.0357,0,U,48240,999,24846,.25348393E-3,.107E-5,0
ONEWEB-0201,2021-031AH,2026-06-19T17:02:26.548800,13.14504056,.0002235,87.8965,289.2111,97.7091,262.4293,0,U,48241,999,24871,.36897E-3,.15E-5,0
ONEWEB-0207,2021-031AJ,2026-06-19T16:33:43.356960,13.14503280,.0002199,87.8971,289.2001,98.2746,261.8633,0,U,48242,999,24862,.15964E-3,.72E-6,0
ONEWEB-0208,2021-031AK,2026-06-19T17:57:04.004928,13.14504103,.0002035,87.8970,289.1950,111.3624,248.7723,0,U,48243,999,24864,-.49739E-3,-.172E-5,0
ONEWEB-0200,2021-031AL,2026-06-19T18:54:09.408096,13.14503171,.000201,87.8978,289.1740,103.0505,257.0849,0,U,48244,999,24857,.47094E-3,.187E-5,0
ONEWEB-0217,2021-031AM,2026-06-19T17:27:21.974688,13.14501523,.0002003,87.8975,289.1904,111.6818,248.4525,0,U,48245,999,24851,-.27322E-3,-.89E-6,0
